2025-292J               
1 67001U 25292J   26007.94583354  .00005549  00000+0  39759-3 0  9998
2 67001  97.6528  85.2454 0015868 175.7847 184.3516 15.04685291  4337
ZK-1A R/B               
1 67002U 25292K   26007.71964854  .00166772  10034-4  68246-3 0  9994
2 67002  97.7163  87.7386 0189851 269.7027  88.2476 15.63715448  4445
STARLINK-35660          
1 67003U 25293A   26007.66668981  .00068277  00000+0  11045-2 0  9994
2 67003  69.9998 250.4797 0003213 267.1121  75.5545 15.52482144  4316
STARLINK-35913          
1 67004U 25293B   26007.91668981  .00050068  00000+0  81264-3 0  9993
2 67004  69.9998 249.7922 0003370 274.1587  27.2954 15.52477765  4351
STARLINK-36148          
1 67005U 25293C   26007.73388968  .00072744  00000+0  12386-2 0  9991
2 67005  70.0027 250.2956 0008772 120.3695 239.8360 15.50990818  5704
STARLINK-36156          
1 67006U 25293D   26007.92615855  .00085845  00000+0  13810-2 0  9990
2 67006  69.9993 249.7599 0003413 270.1540  89.9256 15.52561297  5738
STARLINK-36123          
1 67007U 25293E   26007.92650256  .00104613  00000+0  16789-2 0  9998
2 67007  69.9999 249.7607 0002665 266.3706  93.7176 15.52553032  5736
STARLINK-36163          
1 67008U 25293F   26007.92513216  .00239138  00000+0  34211-2 0  9994
2 67008  70.0010 249.7556 0013612 223.3789 136.6329 15.55145665  5734
STARLINK-36118          
1 67009U 25293G   26007.92478715  .00242473  00000+0  34659-2 0  9991
2 67009  69.9999 249.7542 0013895 223.5569 136.4524 15.55152996  5734
STARLINK-36189          
1 67010U 25293H   26007.73114876  .00284782  00000+0  40378-2 0  9991
2 67010  69.9997 250.2826 0015079 220.7702 139.2359 15.55210718  5701
STARLINK-36167          
1 67011U 25293J   26007.92444346  .00238835  00000+0  34153-2 0  9993
2 67011  69.9996 249.7533 0013784 222.3246 137.6880 15.55155440  5735
STARLINK-36175          
1 67012U 25293K   26007.92375678  .00217813  00000+0  31229-2 0  9999
2 67012  70.0007 249.7507 0013984 224.4635 135.5431 15.55153093  5731
