CCSDS_OMM_VERS = 2.0
CREATION_DATE  = 
ORIGINATOR     = 

OBJECT_NAME    = 2025-292J
OBJECT_ID      = 2025-292J
CENTER_NAME    = EARTH
REF_FRAME      = TEME
TIME_SYSTEM    = UTC
MEAN_ELEMENT_THEORY = SGP/SGP4

EPOCH          = 2026-01-07T22:42:00.017856
MEAN_MOTION    = 15.04685291
ECCENTRICITY   = .00158685
INCLINATION    = 97.6528
RA_OF_ASC_NODE = 85.2454
ARG_OF_PERICENTER = 175.7847
MEAN_ANOMALY   = 184.3516

EPHEMERIS_TYPE = 0
CLASSIFICATION_TYPE = U
NORAD_CAT_ID   = 67001
ELEMENT_SET_NO = 999
REV_AT_EPOCH   = 433
BSTAR          = .39759372E-3
MEAN_MOTION_DOT = .5549E-4
MEAN_MOTION_DDOT = 0

CCSDS_OMM_VERS = 2.0
CREATION_DATE  = 
ORIGINATOR     = 

OBJECT_NAME    = ZK-1A R/B
OBJECT_ID      = 2025-292K
CENTER_NAME    = EARTH
REF_FRAME      = TEME
TIME_SYSTEM    = UTC
MEAN_ELEMENT_THEORY = SGP/SGP4

EPOCH          = 2026-01-07T17:16:17.633856
MEAN_MOTION    = 15.63715448
ECCENTRICITY   = .01898515
INCLINATION    = 97.7163
RA_OF_ASC_NODE = 87.7386
ARG_OF_PERICENTER = 269.7027
MEAN_ANOMALY   = 88.2476

EPHEMERIS_TYPE = 0
CLASSIFICATION_TYPE = U
NORAD_CAT_ID   = 67002
ELEMENT_SET_NO = 999
REV_AT_EPOCH   = 444
BSTAR          = .68245937E-3
MEAN_MOTION_DOT = .166772E-2
MEAN_MOTION_DDOT = .10033792E-4

CCSDS_OMM_VERS = 2.0
CREATION_DATE  = 
ORIGINATOR     = 

OBJECT_NAME    = STARLINK-35660
OBJECT_ID      = 2025-293A
CENTER_NAME    = EARTH
REF_FRAME      = TEME
TIME_SYSTEM    = UTC
MEAN_ELEMENT_THEORY = SGP/SGP4

EPOCH          = 2026-01-07T16:00:01.999584
MEAN_MOTION    = 15.52482144
ECCENTRICITY   = .00032132
INCLINATION    = 69.9998
RA_OF_ASC_NODE = 250.4797
ARG_OF_PERICENTER = 267.1121
MEAN_ANOMALY   = 75.5545

EPHEMERIS_TYPE = 0
CLASSIFICATION_TYPE = U
NORAD_CAT_ID   = 67003
ELEMENT_SET_NO = 999
REV_AT_EPOCH   = 431
BSTAR          = .1104493E-2
MEAN_MOTION_DOT = .68277E-3
MEAN_MOTION_DDOT = 0

CCSDS_OMM_VERS = 2.0
CREATION_DATE  = 
ORIGINATOR     = 

OBJECT_NAME    = STARLINK-35913
OBJECT_ID      = 2025-293B
CENTER_NAME    = EARTH
REF_FRAME      = TEME
TIME_SYSTEM    = UTC
MEAN_ELEMENT_THEORY = SGP/SGP4

EPOCH          = 2026-01-07T22:00:01.999584
MEAN_MOTION    = 15.52477765
ECCENTRICITY   = .00033706
INCLINATION    = 69.9998
RA_OF_ASC_NODE = 249.7922
ARG_OF_PERICENTER = 274.1587
MEAN_ANOMALY   = 27.2954

EPHEMERIS_TYPE = 0
CLASSIFICATION_TYPE = U
NORAD_CAT_ID   = 67004
ELEMENT_SET_NO = 999
REV_AT_EPOCH   = 435
BSTAR          = .81263667E-3
MEAN_MOTION_DOT = .50068E-3
MEAN_MOTION_DDOT = 0

CCSDS_OMM_VERS = 2.0
CREATION_DATE  = 
ORIGINATOR     = 

OBJECT_NAME    = STARLINK-36148
OBJECT_ID      = 2025-293C
CENTER_NAME    = EARTH
REF_FRAME      = TEME
TIME_SYSTEM    = UTC
MEAN_ELEMENT_THEORY = SGP/SGP4

EPOCH          = 2026-01-07T17:36:48.068352
MEAN_MOTION    = 15.50990818
ECCENTRICITY   = .00087728
INCLINATION    = 70.0027
RA_OF_ASC_NODE = 250.2956
ARG_OF_PERICENTER = 120.3695
MEAN_ANOMALY   = 239.8360

EPHEMERIS_TYPE = 0
CLASSIFICATION_TYPE = U
NORAD_CAT_ID   = 67005
ELEMENT_SET_NO = 999
REV_AT_EPOCH   = 570
BSTAR          = .12385559E-2
MEAN_MOTION_DOT = .72744E-3
MEAN_MOTION_DDOT = 0

CCSDS_OMM_VERS = 2.0
CREATION_DATE  = 
ORIGINATOR     = 

OBJECT_NAME    = STARLINK-36156
OBJECT_ID      = 2025-293D
CENTER_NAME    = EARTH
REF_FRAME      = TEME
TIME_SYSTEM    = UTC
MEAN_ELEMENT_THEORY = SGP/SGP4

EPOCH          = 2026-01-07T22:13:40.098720
MEAN_MOTION    = 15.52561297
ECCENTRICITY   = .0003413
INCLINATION    = 69.9993
RA_OF_ASC_NODE = 249.7599
ARG_OF_PERICENTER = 270.1540
MEAN_ANOMALY   = 89.9256

EPHEMERIS_TYPE = 0
CLASSIFICATION_TYPE = U
NORAD_CAT_ID   = 67006
ELEMENT_SET_NO = 999
REV_AT_EPOCH   = 573
BSTAR          = .13809674E-2
MEAN_MOTION_DOT = .85845E-3
MEAN_MOTION_DDOT = 0

CCSDS_OMM_VERS = 2.0
CREATION_DATE  = 
ORIGINATOR     = 

OBJECT_NAME    = STARLINK-36123
OBJECT_ID      = 2025-293E
CENTER_NAME    = EARTH
REF_FRAME      = TEME
TIME_SYSTEM    = UTC
MEAN_ELEMENT_THEORY = SGP/SGP4

EPOCH          = 2026-01-07T22:14:09.821184
MEAN_MOTION    = 15.52553032
ECCENTRICITY   = .00026657
INCLINATION    = 69.9999
RA_OF_ASC_NODE = 249.7607
ARG_OF_PERICENTER = 266.3706
MEAN_ANOMALY   = 93.7176

EPHEMERIS_TYPE = 0
CLASSIFICATION_TYPE = U
NORAD_CAT_ID   = 67007
ELEMENT_SET_NO = 999
REV_AT_EPOCH   = 573
BSTAR          = .16789396E-2
MEAN_MOTION_DOT = .104613E-2
MEAN_MOTION_DDOT = 0

CCSDS_OMM_VERS = 2.0
CREATION_DATE  = 
ORIGINATOR     = 

OBJECT_NAME    = STARLINK-36163
OBJECT_ID      = 2025-293F
CENTER_NAME    = EARTH
REF_FRAME      = TEME
TIME_SYSTEM    = UTC
MEAN_ELEMENT_THEORY = SGP/SGP4

EPOCH          = 2026-01-07T22:12:11.418624
MEAN_MOTION    = 15.55145665
ECCENTRICITY   = .00136121
INCLINATION    = 70.0010
RA_OF_ASC_NODE = 249.7556
ARG_OF_PERICENTER = 223.3789
MEAN_ANOMALY   = 136.6329

EPHEMERIS_TYPE = 0
CLASSIFICATION_TYPE = U
NORAD_CAT_ID   = 67008
ELEMENT_SET_NO = 999
REV_AT_EPOCH   = 573
BSTAR          = .34210748E-2
MEAN_MOTION_DOT = .239138E-2
MEAN_MOTION_DDOT = 0

CCSDS_OMM_VERS = 2.0
CREATION_DATE  = 
ORIGINATOR     = 

OBJECT_NAME    = STARLINK-36118
OBJECT_ID      = 2025-293G
CENTER_NAME    = EARTH
REF_FRAME      = TEME
TIME_SYSTEM    = UTC
MEAN_ELEMENT_THEORY = SGP/SGP4

EPOCH          = 2026-01-07T22:11:41.609760
MEAN_MOTION    = 15.55152996
ECCENTRICITY   = .00138953
INCLINATION    = 69.9999
RA_OF_ASC_NODE = 249.7542
ARG_OF_PERICENTER = 223.5569
MEAN_ANOMALY   = 136.4524

EPHEMERIS_TYPE = 0
CLASSIFICATION_TYPE = U
NORAD_CAT_ID   = 67009
ELEMENT_SET_NO = 999
REV_AT_EPOCH   = 573
BSTAR          = .34658589E-2
MEAN_MOTION_DOT = .242473E-2
MEAN_MOTION_DDOT = 0

CCSDS_OMM_VERS = 2.0
CREATION_DATE  = 
ORIGINATOR     = 

OBJECT_NAME    = STARLINK-36189
OBJECT_ID      = 2025-293H
CENTER_NAME    = EARTH
REF_FRAME      = TEME
TIME_SYSTEM    = UTC
MEAN_ELEMENT_THEORY = SGP/SGP4

EPOCH          = 2026-01-07T17:32:51.252864
MEAN_MOTION    = 15.55210718
ECCENTRICITY   = .00150793
INCLINATION    = 69.9997
RA_OF_ASC_NODE = 250.2826
ARG_OF_PERICENTER = 220.7702
MEAN_ANOMALY   = 139.2359

EPHEMERIS_TYPE = 0
CLASSIFICATION_TYPE = U
NORAD_CAT_ID   = 67010
ELEMENT_SET_NO = 999
REV_AT_EPOCH   = 570
BSTAR          = .40377929E-2
MEAN_MOTION_DOT = .284782E-2
MEAN_MOTION_DDOT = 0

CCSDS_OMM_VERS = 2.0
CREATION_DATE  = 
ORIGINATOR     = 

OBJECT_NAME    = STARLINK-36167
OBJECT_ID      = 2025-293J
CENTER_NAME    = EARTH
REF_FRAME      = TEME
TIME_SYSTEM    = UTC
MEAN_ELEMENT_THEORY = SGP/SGP4

EPOCH          = 2026-01-07T22:11:11.914944
MEAN_MOTION    = 15.55155440
ECCENTRICITY   = .00137843
INCLINATION    = 69.9996
RA_OF_ASC_NODE = 249.7533
ARG_OF_PERICENTER = 222.3246
MEAN_ANOMALY   = 137.6880

EPHEMERIS_TYPE = 0
CLASSIFICATION_TYPE = U
NORAD_CAT_ID   = 67011
ELEMENT_SET_NO = 999
REV_AT_EPOCH   = 573
BSTAR          = .34153327E-2
MEAN_MOTION_DOT = .238835E-2
MEAN_MOTION_DDOT = 0

CCSDS_OMM_VERS = 2.0
CREATION_DATE  = 
ORIGINATOR     = 

OBJECT_NAME    = STARLINK-36175
OBJECT_ID      = 2025-293K
CENTER_NAME    = EARTH
REF_FRAME      = TEME
TIME_SYSTEM    = UTC
MEAN_ELEMENT_THEORY = SGP/SGP4

EPOCH          = 2026-01-07T22:10:12.585792
MEAN_MOTION    = 15.55153093
ECCENTRICITY   = .00139849
INCLINATION    = 70.0007
RA_OF_ASC_NODE = 249.7507
ARG_OF_PERICENTER = 224.4635
MEAN_ANOMALY   = 135.5431

EPHEMERIS_TYPE = 0
CLASSIFICATION_TYPE = U
NORAD_CAT_ID   = 67012
ELEMENT_SET_NO = 999
REV_AT_EPOCH   = 573
BSTAR          = .31229125E-2
MEAN_MOTION_DOT = .217813E-2
MEAN_MOTION_DDOT = 0

